EUTELSAT KONNECT        
1 45027U 20005B   25208.62360728  .00000041  00000+0  00000+0 0  9999
2 45027   0.0589  91.9249 0001070 106.0220 339.2718  1.00269450 21064
EUTELSAT QUANTUM        
1 49056U 21069B   25208.56022141  .00000118  00000+0  00000+0 0  9998
2 49056   0.0538 273.6906 0001860 225.2670  55.8727  1.00271015 14673
EUTELSAT KONNECT VHTS   
1 53765U 22110A   25208.55129471  .00000009  00000+0  00000+0 0  9990
2 53765   0.0548  95.8234 0002472  35.8607  14.9766  1.00271424  3579
EUTELSAT HOTBIRD 13F    
1 54048U 22134A   25208.55337472  .00000079  00000+0  00000+0 0  9990
2 54048   0.0649 280.3547 0001907  79.1959 158.1323  1.00272286 10123
EUTELSAT HOTBIRD 13G    
1 54225U 22146A   25208.55337472  .00000079  00000+0  00000+0 0  9990
2 54225   0.0533 244.8054 0002125 297.6894 335.1550  1.00272847  4213
EUTELSAT 10B            
1 54259U 22157A   25208.55276804  .00000060  00000+0  00000+0 0  9990
2 54259   0.0488  93.0423 0001569  52.3328   9.0456  1.00271476  9766
EUTELSAT 36D            
1 59346U 24059A   25208.48653635  .00000147  00000+0  00000+0 0  9994
2 59346   0.0249  82.2411 0000207  97.0075 337.1860  1.00269739  4895
